start=new Date('2022-12-10T00:00:00.000Z').valueOf();
sats=[{"INCLINATION":"53.0563","REF_FRAME":"TEME","PERIAPSIS":"545.959","REV_AT_EPOCH":"8938","OBJECT_ID":"2021-036S","MEAN_MOTION_DOT":"0.00001301","ARG_OF_PERICENTER":"52.6454","DECAY_DATE":null,"COUNTRY_CODE":"US","CENTER_NAME":"EARTH","MEAN_ELEMENT_THEORY":"SGP4","MEAN_MOTION":"15.06406593","ELEMENT_SET_NO":"999","MEAN_MOTION_DDOT":"0.0000000000000","RA_OF_ASC_NODE":"10.9956","OBJECT_TYPE":"PAYLOAD","NORAD_CAT_ID":"48292","OBJECT_NAME":"STARLINK-2542","MEAN_ANOMALY":"307.4698","TLE_LINE1":"1 48292U 21036S   22342.56757632  .00001301  00000-0  10622-3 0  9990","APOAPSIS":"548.427","EPOCH":"2022-12-08T13:37:18.594048","FILE":"3684925","RCS_SIZE":"LARGE","TLE_LINE2":"2 48292  53.0563  10.9956 0001782  52.6454 307.4698 15.06406593 89387","BSTAR":"0.00010622000000","LAUNCH_DATE":"2021-04-29","SITE":"AFETR","GP_ID":"219807867","SEMIMAJOR_AXIS":"6925.328","ECCENTRICITY":"0.00017820","CLASSIFICATION_TYPE":"U","EPHEMERIS_TYPE":"0","TIME_SYSTEM":"UTC","PERIOD":"95.592"},{"GP_ID":"219846180","SEMIMAJOR_AXIS":"6925.350","SITE":"AFETR","PERIOD":"95.592","EPHEMERIS_TYPE":"0","ECCENTRICITY":"0.00013110","CLASSIFICATION_TYPE":"U","TIME_SYSTEM":"UTC","MEAN_ANOMALY":"302.5403","BSTAR":"0.00006318200000","TLE_LINE2":"2 48293  53.0557   6.4416 0001311  57.5713 302.5403 15.06399532 90119","LAUNCH_DATE":"2021-04-29","APOAPSIS":"548.123","TLE_LINE1":"1 48293U 21036T   22343.54433139  .00000660  00000-0  63182-4 0  9990","EPOCH":"2022-12-09T13:03:50.232096","RCS_SIZE":"LARGE","FILE":"3685307","MEAN_ELEMENT_THEORY":"SGP4","COUNTRY_CODE":"US","CENTER_NAME":"EARTH","MEAN_MOTION":"15.06399532","ELEMENT_SET_NO":"999","MEAN_MOTION_DOT":"0.00000660","ARG_OF_PERICENTER":"57.5713","DECAY_DATE":null,"OBJECT_NAME":"STARLINK-2550","OBJECT_TYPE":"PAYLOAD","NORAD_CAT_ID":"48293","MEAN_MOTION_DDOT":"0.0000000000000","RA_OF_ASC_NODE":"6.4416","REF_FRAME":"TEME","INCLINATION":"53.0557","OBJECT_ID":"2021-036T","PERIAPSIS":"546.307","REV_AT_EPOCH":"9011"},{"SITE":"AFETR","SEMIMAJOR_AXIS":"6925.368","GP_ID":"219848628","EPHEMERIS_TYPE":"0","ECCENTRICITY":"0.00017480","CLASSIFICATION_TYPE":"U","TIME_SYSTEM":"UTC","PERIOD":"95.593","MEAN_ANOMALY":"291.1825","TLE_LINE1":"1 48294U 21036U   22343.54064604 -.00005506  00000-0 -35106-3 0  9998","EPOCH":"2022-12-09T12:58:31.817856","APOAPSIS":"548.443","RCS_SIZE":"LARGE","FILE":"3685425","TLE_LINE2":"2 48294  53.0551   6.4530 0001748  68.9351 291.1825 15.06393818 90111","BSTAR":"-0.00035106000000","LAUNCH_DATE":"2021-04-29","MEAN_MOTION_DOT":"-0.00005506","ARG_OF_PERICENTER":"68.9351","DECAY_DATE":null,"MEAN_ELEMENT_THEORY":"SGP4","CENTER_NAME":"EARTH","COUNTRY_CODE":"US","MEAN_MOTION":"15.06393818","ELEMENT_SET_NO":"999","OBJECT_TYPE":"PAYLOAD","NORAD_CAT_ID":"48294","RA_OF_ASC_NODE":"6.4530","MEAN_MOTION_DDOT":"0.0000000000000","OBJECT_NAME":"STARLINK-2533","REF_FRAME":"TEME","INCLINATION":"53.0551","PERIAPSIS":"546.022","REV_AT_EPOCH":"9011","OBJECT_ID":"2021-036U"},{"MEAN_MOTION_DDOT":"0.0000000000000","RA_OF_ASC_NODE":"6.4777","OBJECT_TYPE":"PAYLOAD","NORAD_CAT_ID":"48295","OBJECT_NAME":"STARLINK-2535","MEAN_MOTION_DOT":"-0.00001255","DECAY_DATE":null,"ARG_OF_PERICENTER":"53.1192","CENTER_NAME":"EARTH","COUNTRY_CODE":"US","MEAN_ELEMENT_THEORY":"SGP4","MEAN_MOTION":"15.06382059","ELEMENT_SET_NO":"999","PERIAPSIS":"545.957","REV_AT_EPOCH":"9011","OBJECT_ID":"2021-036V","INCLINATION":"53.0553","REF_FRAME":"TEME","CLASSIFICATION_TYPE":"U","ECCENTRICITY":"0.00018940","EPHEMERIS_TYPE":"0","TIME_SYSTEM":"UTC","PERIOD":"95.593","SITE":"AFETR","SEMIMAJOR_AXIS":"6925.404","GP_ID":"219846086","EPOCH":"2022-12-09T12:53:14.795520","TLE_LINE1":"1 48295U 21036V   22343.53697680 -.00001255  00000-0 -65373-4 0  9991","APOAPSIS":"548.580","FILE":"3685302","RCS_SIZE":"LARGE","BSTAR":"-0.00006537300000","TLE_LINE2":"2 48295  53.0553   6.4777 0001894  53.1192 306.9971 15.06382059 90110","LAUNCH_DATE":"2021-04-29","MEAN_ANOMALY":"306.9971"},{"REF_FRAME":"TEME","INCLINATION":"53.0562","REV_AT_EPOCH":"9012","PERIAPSIS":"545.468","OBJECT_ID":"2021-036W","ARG_OF_PERICENTER":"38.4679","DECAY_DATE":null,"MEAN_MOTION_DOT":"0.00000798","MEAN_MOTION":"15.06390116","ELEMENT_SET_NO":"999","MEAN_ELEMENT_THEORY":"SGP4","COUNTRY_CODE":"US","CENTER_NAME":"EARTH","OBJECT_TYPE":"PAYLOAD","NORAD_CAT_ID":"48296","MEAN_MOTION_DDOT":"0.0000000000000","RA_OF_ASC_NODE":"6.1911","OBJECT_NAME":"STARLINK-2546","MEAN_ANOMALY":"321.6492","RCS_SIZE":"LARGE","FILE":"3685349","APOAPSIS":"549.020","TLE_LINE1":"1 48296U 21036W   22343.59963663  .00000798  00000-0  72519-4 0  9994","EPOCH":"2022-12-09T14:23:28.604832","LAUNCH_DATE":"2021-04-29","TLE_LINE2":"2 48296  53.0562   6.1911 0002564  38.4679 321.6492 15.06390116 90125","BSTAR":"0.00007251900000","SITE":"AFETR","GP_ID":"219846555","SEMIMAJOR_AXIS":"6925.379","TIME_SYSTEM":"UTC","EPHEMERIS_TYPE":"0","CLASSIFICATION_TYPE":"U","ECCENTRICITY":"0.00025640","PERIOD":"95.593"},{"MEAN_MOTION":"15.06394647","ELEMENT_SET_NO":"999","CENTER_NAME":"EARTH","COUNTRY_CODE":"US","MEAN_ELEMENT_THEORY":"SGP4","ARG_OF_PERICENTER":"61.4889","DECAY_DATE":null,"MEAN_MOTION_DOT":"0.00000350","OBJECT_NAME":"STARLINK-2544","RA_OF_ASC_NODE":"5.6148","MEAN_MOTION_DDOT":"0.0000000000000","OBJECT_TYPE":"PAYLOAD","NORAD_CAT_ID":"48297","INCLINATION":"53.0579","REF_FRAME":"TEME","OBJECT_ID":"2021-036X","REV_AT_EPOCH":"9014","PERIAPSIS":"545.986","SEMIMAJOR_AXIS":"6925.365","GP_ID":"219847062","SITE":"AFETR","PERIOD":"95.592","TIME_SYSTEM":"UTC","ECCENTRICITY":"0.00017960","CLASSIFICATION_TYPE":"U","EPHEMERIS_TYPE":"0","MEAN_ANOMALY":"298.6280","LAUNCH_DATE":"2021-04-29","BSTAR":"0.00004242300000","TLE_LINE2":"2 48297  53.0579   5.6148 0001796  61.4889 298.6280 15.06394647 90148","FILE":"3685351","RCS_SIZE":"LARGE","APOAPSIS":"548.474","TLE_LINE1":"1 48297U 21036X   22343.72864305  .00000350  00000-0  42423-4 0  9998","EPOCH":"2022-12-09T17:29:14.759520"},{"SITE":"AFETR","GP_ID":"219847058","SEMIMAJOR_AXIS":"6925.346","ECCENTRICITY":"0.00012690","CLASSIFICATION_TYPE":"U","EPHEMERIS_TYPE":"0","TIME_SYSTEM":"UTC","PERIOD":"95.592","MEAN_ANOMALY":"331.8999","APOAPSIS":"548.090","TLE_LINE1":"1 48298U 21036Y   22343.45955384  .00000946  00000-0  82379-4 0  9992","EPOCH":"2022-12-09T11:01:45.451776","FILE":"3685351","RCS_SIZE":"LARGE","TLE_LINE2":"2 48298  53.0564   6.8277 0001269  28.2059 331.8999 15.06400836 90105","BSTAR":"0.00008237900000","LAUNCH_DATE":"2021-04-29","MEAN_MOTION_DOT":"0.00000946","DECAY_DATE":null,"ARG_OF_PERICENTER":"28.2059","COUNTRY_CODE":"US","CENTER_NAME":"EARTH","MEAN_ELEMENT_THEORY":"SGP4","ELEMENT_SET_NO":"999","MEAN_MOTION":"15.06400836","RA_OF_ASC_NODE":"6.8277","MEAN_MOTION_DDOT":"0.0000000000000","OBJECT_TYPE":"PAYLOAD","NORAD_CAT_ID":"48298","OBJECT_NAME":"STARLINK-2559","INCLINATION":"53.0564","REF_FRAME":"TEME","PERIAPSIS":"546.332","REV_AT_EPOCH":"9010","OBJECT_ID":"2021-036Y"},{"REF_FRAME":"TEME","INCLINATION":"53.0565","OBJECT_ID":"2021-036Z","REV_AT_EPOCH":"8947","PERIAPSIS":"546.216","ELEMENT_SET_NO":"999","MEAN_MOTION":"15.06416465","MEAN_ELEMENT_THEORY":"SGP4","COUNTRY_CODE":"US","CENTER_NAME":"EARTH","ARG_OF_PERICENTER":"21.5326","DECAY_DATE":null,"MEAN_MOTION_DOT":"0.00003521","OBJECT_NAME":"STARLINK-2557","OBJECT_TYPE":"PAYLOAD","NORAD_CAT_ID":"48299","RA_OF_ASC_NODE":"8.3151","MEAN_MOTION_DDOT":"0.0000000000000","MEAN_ANOMALY":"338.5720","LAUNCH_DATE":"2021-04-29","BSTAR":"0.00025507000000","TLE_LINE2":"2 48299  53.0565   8.3151 0001367  21.5326 338.5720 15.06416465 89476","RCS_SIZE":"LARGE","FILE":"3685263","TLE_LINE1":"1 48299U 21036Z   22343.12413413  .00003521  00000-0  25507-3 0  9990","APOAPSIS":"548.110","EPOCH":"2022-12-09T02:58:45.188832","GP_ID":"219840752","SEMIMAJOR_AXIS":"6925.298","SITE":"AFETR","PERIOD":"95.591","TIME_SYSTEM":"UTC","EPHEMERIS_TYPE":"0","ECCENTRICITY":"0.00013670","CLASSIFICATION_TYPE":"U"},{"OBJECT_NAME":"STARLINK-2538","NORAD_CAT_ID":"48300","OBJECT_TYPE":"PAYLOAD","RA_OF_ASC_NODE":"18.3443","MEAN_MOTION_DDOT":"0.0000000000000","MEAN_MOTION":"15.06413056","ELEMENT_SET_NO":"999","MEAN_ELEMENT_THEORY":"SGP4","CENTER_NAME":"EARTH","COUNTRY_CODE":"US","DECAY_DATE":null,"ARG_OF_PERICENTER":"64.3641","MEAN_MOTION_DOT":"0.00002412","OBJECT_ID":"2021-036AA","REV_AT_EPOCH":"8933","PERIAPSIS":"546.125","REF_FRAME":"TEME","INCLINATION":"53.0570","PERIOD":"95.591","TIME_SYSTEM":"UTC","EPHEMERIS_TYPE":"0","CLASSIFICATION_TYPE":"U","ECCENTRICITY":"0.00015140","SEMIMAJOR_AXIS":"6925.309","GP_ID":"219841003","SITE":"AFETR","LAUNCH_DATE":"2021-04-29","TLE_LINE2":"2 48300  53.0570  18.3443 0001514  64.3641 295.7504 15.06413056 89331","BSTAR":"0.00018071000000","RCS_SIZE":"LARGE","FILE":"3685263","TLE_LINE1":"1 48300U 21036AA  22343.11582936  .00002412  00000-0  18071-3 0  9995","EPOCH":"2022-12-09T02:46:47.656704","APOAPSIS":"548.222","MEAN_ANOMALY":"295.7504"},{"SITE":"AFETR","GP_ID":"219847110","SEMIMAJOR_AXIS":"6925.370","TIME_SYSTEM":"UTC","EPHEMERIS_TYPE":"0","CLASSIFICATION_TYPE":"U","ECCENTRICITY":"0.00013640","PERIOD":"95.593","MEAN_ANOMALY":"322.3297","RCS_SIZE":"LARGE","FILE":"3685354","APOAPSIS":"548.179","TLE_LINE1":"1 48301U 21036AB  22343.51023820  .00000928  00000-0  81211-4 0  9999","EPOCH":"2022-12-09T12:14:44.580480","LAUNCH_DATE":"2021-04-29","TLE_LINE2":"2 48301  53.0562  16.6001 0001364  37.7787 322.3297 15.06393047 89964","BSTAR":"0.00008121100000","ARG_OF_PERICENTER":"37.7787","DECAY_DATE":null,"MEAN_MOTION_DOT":"0.00000928","MEAN_MOTION":"15.06393047","ELEMENT_SET_NO":"999","MEAN_ELEMENT_THEORY":"SGP4","CENTER_NAME":"EARTH","COUNTRY_CODE":"US","OBJECT_TYPE":"PAYLOAD","NORAD_CAT_ID":"48301","MEAN_MOTION_DDOT":"0.0000000000000","RA_OF_ASC_NODE":"16.6001","OBJECT_NAME":"STARLINK-2537","REF_FRAME":"TEME","INCLINATION":"53.0562","REV_AT_EPOCH":"8996","PERIAPSIS":"546.290","OBJECT_ID":"2021-036AB"}];
